[{"OBJECT_NAME":"WNISAT 1R","OBJECT_ID":"2017-042L","EPOCH":"2026-03-09T20:41:10.613760","MEAN_MOTION":15.01153186,"ECCENTRICITY":0.00133015,"INCLINATION":97.4515,"RA_OF_ASC_NODE":228.7079,"ARG_OF_PERICENTER":131.3338,"MEAN_ANOMALY":228.9034,"EPHEMERIS_TYPE":0,"CLASSIFICATION_TYPE":"U","NORAD_CAT_ID":42835,"ELEMENT_SET_NO":999,"REV_AT_EPOCH":47160,"BSTAR":0.00037839839,"MEAN_MOTION_DOT":4.802e-5,"MEAN_MOTION_DDOT":0},{"OBJECT_NAME":"STARLINK-34600","OBJECT_ID":"2025-142D","EPOCH":"2026-03-09T22:14:52.486368","MEAN_MOTION":14.9832918,"ECCENTRICITY":0.00027257,"INCLINATION":70.0002,"RA_OF_ASC_NODE":313.9343,"ARG_OF_PERICENTER":260.4834,"MEAN_ANOMALY":99.6017,"EPHEMERIS_TYPE":0,"CLASSIFICATION_TYPE":"U","NORAD_CAT_ID":64699,"ELEMENT_SET_NO":999,"REV_AT_EPOCH":3951,"BSTAR":0.00045163174,"MEAN_MOTION_DOT":5.3e-5,"MEAN_MOTION_DDOT":0}]
